H-2A R/B                
1 27601U 02056E   24303.37578337  .00001294  00000+0  47356-3 0  9997
2 27601  98.2485 273.9261 0070254 200.4001 293.7771 14.33129534143008
CZ-4B R/B               
1 28059U 03049C   24303.17502952  .00002345  00000+0  55760-3 0  9992
2 28059  98.6293 269.4733 0047941 308.2987  51.3902 14.54179313114418
CZ-2C R/B               
1 28222U 04012C   24303.08558140  .00038791  00000+0  12338-2 0  9992
2 28222  97.7971 322.4678 0028753 302.5625  57.2839 15.32092819127552
SL-16 R/B               
1 28353U 04021B   24303.39092746  .00000434  00000+0  25100-3 0  9991
2 28353  71.0002 193.9261 0003094  64.1547 295.9894 14.14474364 52659
CZ-4B R/B               
1 28415U 04035C   24303.35661320  .00017506  00000+0  82487-3 0  9990
2 28415  97.4108 334.2178 0038176 276.9307  82.7585 15.18909547104300
CZ-2C R/B               
1 28480U 04046B   24303.55395896  .00000712  00000+0  28121-3 0  9994
2 28480  98.1748 238.8525 0140075 181.4730 178.6059 14.26587797 37759
ARIANE 5 R/B            
1 28499U 04049H   24303.47075822  .00005856  00000+0  67390-3 0  9997
2 28499  98.2030  84.7745 0087423 157.9497 202.5513 14.83400240 72178
CZ-2D R/B               
1 28738U 05024B   24303.45928457  .00033318  00000+0  10791-2 0  9992
2 28738  97.3686 300.6116 0009545  41.3375 318.8587 15.31906997 63179
SUZAKU (ASTRO-EII)      
1 28773U 05025A   24303.29815101  .00175937  00000+0  15479-2 0  9997
2 28773  31.3833 297.5626 0004446 223.9008 136.1300 15.67130296 67871
ALOS (DAICHI)           
1 28931U 06002A   24303.58457373  .00006333  00000+0  11376-2 0  9999
2 28931  98.0528 253.9776 0002645  78.2447 281.9054 14.67016214   668
H-2A R/B                
1 28932U 06002B   24303.27985613  .00023481  00000+0  15817-2 0  9996
2 28932  98.2030  42.7621 0066494 117.9576 242.8400 15.04862996 19476
RESURS-DK 1             
1 29228U 06021A   24303.08487891  .00009358  00000+0  60117-3 0  9991
2 29228  69.9349  78.0016 0004800 205.3392 154.7537 15.08701704 12517
GENESIS 1               
1 29252U 06029A   24303.08711693  .00076246  00000+0  13668-2 0  9994
2 29252  64.5112  71.1242 0034690 305.9952  53.7971 15.48816856 11256
CZ-4B R/B               
1 29507U 06046C   24303.06368450  .00015901  00000+0  96347-3 0  9990
2 29507  97.6289 338.4336 0038462 177.6050 182.5371 15.10033900984904
CZ-2C R/B               
1 31114U 07010B   24303.28936360  .00000753  00000+0  36776-3 0  9993
2 31114  98.3528  71.6786 0058266 298.6166  60.9158 14.19939955909267
COSMO-SKYMED 1          
1 31598U 07023A   24303.54941702  .00002555  00000+0  32730-3 0  9996
2 31598  97.8875 124.7598 0001545  84.4260 275.7129 14.82172028941021
GENESIS 2               
1 31789U 07028A   24303.49948153  .00056667  00000+0  11416-2 0  9994
2 31789  64.4846 116.3599 0010882 255.7238 104.2691 15.46172435958112
COSMOS 2428             
1 31792U 07029A   24303.37700443  .00000590  00000+0  34345-3 0  9995
2 31792  70.9368 165.1251 0009248 230.2911 129.7395 14.12772002893999
SL-16 R/B               
1 31793U 07029B   24303.50062903  .00000655  00000+0  36512-3 0  9993
2 31793  70.9742 135.3201 0002069 282.0450  98.2437 14.14697072895193
KORONAS-FOTON           
1 33504U 09003A   24303.59103205  .00024396  00000+0  83429-3 0  9996
2 33504  82.4360  66.4465 0014472 125.8175 234.4413 15.30031248869548
CZ-2C R/B               
1 37731U 11030B   24303.43975941  .00004977  00000+0  66723-3 0  9993
2 37731  97.7822 262.6500 0055386 162.6848 350.2938 14.78749301716683
H-2A R/B                
1 38341U 12025E   24303.51020050  .00008698  00000+0  88089-3 0  9990
2 38341  98.4200 223.6028 0050043 130.6035 229.9551 14.90266948674185
CUSAT 2 & FALCON 9 R/B  
1 39271U 13055G   24303.33160564  .00173177  66715-5  11429-2 0  9991
2 39271  80.9178 274.3482 0205909 206.0893 152.9869 15.51843327585962
SHIJIAN-16 (SJ-16)      
1 39358U 13057A   24303.53344077  .00008098  00000+0  84203-3 0  9993
2 39358  74.9757  42.8543 0017567 237.6566 122.2920 14.89867291597549
SL-4 R/B                
1 39679U 14021B   24303.54413019  .00024142  00000+0  78667-3 0  9990
2 39679  51.6174 210.7531 0130323 114.4831 246.9802 15.23819997580225
ALOS-2                  
1 39766U 14029A   24303.56429387  .00009924  00000+0  13340-2 0  9999
2 39766  97.9235  38.2796 0001501  98.6897 261.4485 14.79468844563512
YAOGAN-29               
1 41038U 15069A   24303.54786979  .00002218  00000+0  28577-3 0  9998
2 41038  98.0515 318.7523 0002440 126.6926 233.4511 14.82094251482365
ASTRO-H (HITOMI)        
1 41337U 16012A   24303.41025288  .00009746  00000+0  65495-3 0  9997
2 41337  31.0020 309.3394 0009983  34.1191 326.0086 15.05484159477257
HXMT (HUIYAN)           
1 42758U 17034A   24303.56785806  .00024020  00000+0  11541-2 0  9999
2 42758  43.0135 249.3320 0012730 270.3911  89.5478 15.18327809407234
CZ-2C R/B               
1 43521U 18054D   24303.51431152  .00045302  00000+0  12206-2 0  9993
2 43521  35.1437 342.2735 0048927 270.3120  89.1994 15.35550347351479
SAOCOM 1A               
1 43641U 18076A   24303.55799072  .00002177  00000+0  27982-3 0  9993
2 43641  97.8866 127.8593 0001416  89.9405 270.1970 14.82178823327873
H-2A R/B                
1 43682U 18084L   24303.57770482  .00030368  00000+0  13755-2 0  9998
2 43682  98.8547  53.4633 0039804 279.7781  79.8956 15.20107379329873
SAOCOM 1B               
1 46265U 20059A   24303.52175915  .00002337  00000+0  29987-3 0  9998
2 46265  97.8869 126.9213 0001583  86.5790 273.5604 14.82180804225257
CSS (TIANHE)            
1 48274U 21035A   24303.13056901  .00069666  00000+0  82953-3 0  9995
2 48274  41.4678 345.8430 0007390 295.9868  64.0209 15.60121331200051
COSMOS 2550             
1 48865U 21056A   24303.54854690  .00000587  00000+0  23662-4 0  9990
2 48865  67.1391 101.8552 0008334 270.2878  89.7322 15.33831771187370
CZ-2C R/B               
1 52794U 22058K   24303.48549048  .00035718  00000+0  11674-2 0  9992
2 52794  50.1958 299.2783 0072241 313.1281  46.3652 15.28823283133625
XRISM                   
1 57800U 23137A   24303.50606064  .00017941  00000+0  12624-2 0  9993
2 57800  31.0029 236.1157 0008084 102.1099 258.0443 15.03908291 62826
ACS3                    
1 59588U 24077B   24303.40086401  .00049683  00000+0  54297-1 0  9997
2 59588  97.4821 340.7306 0044601 178.8084 181.3183 13.71724867 25763
SZ-17 MODULE            
1 59624U 23164C   24303.50543760  .00194764  00000+0  68061-3 0  9998
2 59624  41.4719 329.8341 0011155 126.6475 233.5400 15.87844482 28703
